     2.100          NAVIGATION                              RINEX VERSION / TYPE
fic2rin                                 05/03/2009 02:17:39 PGM / RUN BY / DATE
                                                            END OF HEADER
15 09  5  2 10  0  0.0 -.287432689220D-03 -.397903932026D-11  .000000000000D+00
     .650000000000D+02  .466250000000D+02  .434089510142D-08 -.103875198956D+01
     .244006514549D-05  .143380637746D-02  .830739736557D-05  .515361158180D+04
     .554400000000D+06 -.135973095894D-06  .218316291409D+01 -.372529029846D-08
     .956428129631D+00  .220218750000D+03 -.492621942676D+00 -.800926218935D-08
    -.500020827875D-10  .100000000000D+01  .152900000000D+04  .000000000000D+00
     .240000000000D+01  .000000000000D+00 -.977888703346D-08  .650000000000D+02
     .547206000000D+06  .400000000000D+01
16 09  5  2 10  0  0.0  .545759685338D-04 -.318323145621D-11  .000000000000D+00
     .620000000000D+02 -.943125000000D+02  .446304304651D-08  .438490181859D+00
    -.479817390442D-05  .533241429366D-02  .684894621372D-05  .515353831673D+04
     .554400000000D+06  .100582838058D-06 -.197009072157D+01 -.596046447754D-07
     .967991799235D+00  .250062500000D+03 -.375392684749D+00 -.821641367518D-08
    -.378587198248D-10  .100000000000D+01  .152900000000D+04  .000000000000D+00
     .240000000000D+01  .000000000000D+00 -.977888703346D-08  .620000000000D+02
     .547206000000D+06  .400000000000D+01
17 09  5  2 10  0  0.0  .569568946958D-04  .193267624127D-11  .000000000000D+00
     .200000000000D+02 -.144375000000D+02  .466019411579D-08 -.654084276916D+00
    -.670552253723D-06  .445505080279D-02  .102333724499D-04  .515367638969D+04
     .554400000000D+06  .391155481339D-07 -.927538180557D+00  .204890966415D-07
     .959562220955D+00  .182750000000D+03 -.265804538925D+01 -.800604776974D-08
     .211437378644D-09  .100000000000D+01  .152900000000D+04  .000000000000D+00
     .240000000000D+01  .000000000000D+00 -.102445483208D-07  .200000000000D+02
     .547206000000D+06  .400000000000D+01
18 09  5  2 10  0  0.0 -.604987144470D-04  .341060513165D-11  .000000000000D+00
     .480000000000D+02  .100625000000D+02  .507806866480D-08  .616671054048D+00
     .698491930962D-06  .102513254387D-01  .752136111259D-05  .515359300995D+04
     .554400000000D+06 -.279396772385D-07  .117971667200D+01  .128522515297D-06
     .942640682642D+00  .225093750000D+03 -.242769350389D+01 -.851071164816D-08
    -.601810782120D-09  .100000000000D+01  .152900000000D+04  .000000000000D+00
     .240000000000D+01  .000000000000D+00 -.107102096081D-07  .480000000000D+02
     .547206000000D+06  .400000000000D+01
19 09  5  2 10  0  0.0  .268220901489D-04 -.102318153949D-11  .000000000000D+00
     .680000000000D+02 -.130625000000D+02  .472269671927D-08 -.128634077303D+01
    -.862404704094D-06  .552244565915D-02  .107120722532D-04  .515359753799D+04
     .554400000000D+06  .484287738800D-07 -.871399972004D+00 -.931322574615D-07
     .957315357261D+00  .171937500000D+03 -.370552494473D+00 -.804533512050D-08
     .311798701953D-09  .100000000000D+01  .152900000000D+04  .000000000000D+00
     .240000000000D+01  .000000000000D+00 -.144354999065D-07  .680000000000D+02
     .547206000000D+06  .400000000000D+01
20 09  5  2 10  0  0.0  .837561674416D-04 -.102318153949D-11  .000000000000D+00
     .320000000000D+02 -.462500000000D+01  .506842540598D-08  .766282781931D+00
    -.247731804848D-06  .402774231043D-02  .728666782379D-05  .515361885071D+04
     .554400000000D+06 -.670552253723D-07  .112587545549D+01 -.614672899246D-07
     .942306100111D+00  .230437500000D+03  .135397801654D+01 -.841963642594D-08
    -.512164190837D-09  .100000000000D+01  .152900000000D+04  .000000000000D+00
     .240000000000D+01  .000000000000D+00 -.651925802231D-08  .320000000000D+02
     .547206000000D+06  .400000000000D+01
21 09  5  2 10  0  0.0  .161873176694D-04 -.204636307899D-11  .000000000000D+00
     .101000000000D+03  .363750000000D+02  .557344644213D-08  .191225318591D+01
     .190176069736D-05  .151338592404D-01  .722892582417D-05  .515361708832D+04
     .554400000000D+06 -.366941094398D-06  .121452733142D+00  .100582838058D-06
     .934559549505D+00  .233062500000D+03 -.261342354392D+01 -.857642867125D-08
    -.928610108910D-11  .100000000000D+01  .152900000000D+04  .000000000000D+00
     .240000000000D+01  .000000000000D+00 -.121071934700D-07  .101000000000D+03
     .547206000000D+06  .400000000000D+01
22 09  5  2 10  0  0.0  .200542621315D-03 -.795807864051D-12  .000000000000D+00
     .930000000000D+02  .493750000000D+01  .513807116414D-08 -.424668038843D+00
     .258907675743D-06  .491346383933D-02  .731833279133D-05  .515365974998D+04
     .554400000000D+06 -.204890966415D-07  .118545883027D+01 -.130385160446D-07
     .940300541829D+00  .224468750000D+03 -.187175147819D+01 -.851821196058D-08
    -.550380068396D-09  .100000000000D+01  .152900000000D+04  .000000000000D+00
     .485000000000D+01  .000000000000D+00 -.176951289177D-07  .930000000000D+02
     .547206000000D+06  .400000000000D+01
23 09  5  2 10  0  0.0  .389794819057D-03  .227373675443D-12  .000000000000D+00
     .460000000000D+02  .410000000000D+02  .405409744086D-08 -.182782667090D+01
     .207126140594D-05  .600754225161D-02  .930950045586D-05  .515361828995D+04
     .554400000000D+06 -.633299350739D-07  .220277735690D+01 -.130385160446D-07
     .970392079148D+00  .206875000000D+03  .287770625906D+01 -.787461372356D-08
     .582167106740D-10  .100000000000D+01  .152900000000D+04  .000000000000D+00
     .240000000000D+01  .000000000000D+00 -.200234353542D-07  .460000000000D+02
     .547206000000D+06  .400000000000D+01
25 09  5  2 10  0  0.0  .390823464841D-03  .203499439522D-10  .000000000000D+00
     .340000000000D+02  .262812500000D+02  .444411368660D-08  .104273691111D+01
     .128522515297D-05  .115159638226D-01  .500120222569D-05  .515365142632D+04
     .554400000000D+06 -.130385160446D-07 -.313314219654D+01 -.242143869400D-06
     .969612083412D+00  .286062500000D+03 -.120762882419D+01 -.831748931396D-08
     .307155651409D-09  .100000000000D+01  .152900000000D+04  .000000000000D+00
     .240000000000D+01  .000000000000D+00 -.745058059692D-08  .340000000000D+02
     .547206000000D+06  .400000000000D+01
26 09  5  2 10  0  0.0  .593378208578D-04  .159161572810D-11  .000000000000D+00
     .600000000000D+02  .525937500000D+02  .344657213499D-08 -.289405091757D+01
     .261887907982D-05  .204019375378D-01  .874698162079D-05  .515488134384D+04
     .554400000000D+06  .143423676491D-06  .225187694577D+01 -.139698386192D-06
     .992740897243D+00  .226062500000D+03  .999716838196D+00 -.733173396758D-08
     .846463830045D-10  .100000000000D+01  .152900000000D+04  .000000000000D+00
     .240000000000D+01  .000000000000D+00 -.651925802231D-08  .600000000000D+02
     .547206000000D+06  .400000000000D+01
27 09  5  2 10  0  0.0  .456562265754D-04  .318323145621D-11  .000000000000D+00
     .128000000000D+03  .125312500000D+02  .433946647048D-08 -.828336118336D+00
     .994652509689D-06  .208531795070D-01  .532902777195D-05  .515509508896D+04
     .554400000000D+06 -.191852450371D-06 -.309687840158D+01  .273808836937D-06
     .974318527866D+00  .292406250000D+03 -.161290560886D+01 -.846678124685D-08
     .382873091058D-09  .100000000000D+01  .152900000000D+04  .000000000000D+00
     .240000000000D+01  .000000000000D+00 -.419095158577D-08  .128000000000D+03
     .547206000000D+06  .400000000000D+01
28 09  5  2 10  0  0.0 -.244514085352D-04 -.341060513165D-12  .000000000000D+00
     .820000000000D+02 -.695625000000D+02  .455626121514D-08 -.157848373601D+00
    -.366196036339D-05  .148625749862D-01  .735372304916D-05  .515364619637D+04
     .554400000000D+06 -.124797224998D-06 -.196187569924D+01  .188127160072D-06
     .966181720455D+00  .245718750000D+03 -.202730152118D+01 -.837284876276D-08
     .489306095849D-10  .100000000000D+01  .152900000000D+04  .000000000000D+00
     .340000000000D+01  .000000000000D+00 -.107102096081D-07  .820000000000D+02
     .547206000000D+06  .400000000000D+01
30 09  5  2 10  0  0.0  .143336597830D-03  .272848410532D-11  .000000000000D+00
     .200000000000D+02 -.818437500000D+02  .491377610707D-08  .317072621656D+00
    -.448152422905D-05  .113218670012D-01  .709109008312D-05  .515360707092D+04
     .554400000000D+06 -.111758708954D-06 -.203437115326D+01  .353902578354D-07
     .951592064783D+00  .238500000000D+03  .141344720032D+01 -.858785771874D-08
    -.700029159024D-10  .100000000000D+01  .152900000000D+04  .000000000000D+00
     .240000000000D+01  .000000000000D+00 -.838190317154D-08  .200000000000D+02
     .547206000000D+06  .400000000000D+01
31 09  5  2 10  0  0.0 -.592414289713D-04 -.102318153949D-11  .000000000000D+00
     .700000000000D+02  .181250000000D+02  .430910806308D-08  .271970145855D+01
     .101327896118D-05  .711001455784D-02  .430457293987D-05  .515369970512D+04
     .554400000000D+06  .204890966415D-07 -.304088687982D+01 -.558793544769D-08
     .972723458545D+00  .302156250000D+03 -.114544160152D+01 -.809926593836D-08
     .242510101519D-09  .100000000000D+01  .152900000000D+04  .000000000000D+00
     .340000000000D+01  .000000000000D+00 -.130385160446D-07  .700000000000D+02
     .547206000000D+06  .400000000000D+01
32 09  5  2 10  0  0.0  .267045572400D-03 -.511590769747D-11  .000000000000D+00
     .630000000000D+02  .156250000000D+00  .435553856852D-08 -.265124071651D+01
     .186264514923D-07  .133289463120D-01  .795349478722D-05  .515358063316D+04
     .554400000000D+06  .931322574615D-07  .123494000377D+01  .968575477600D-07
     .964244480447D+00  .225218750000D+03 -.117183888009D+01 -.780032491484D-08
    -.515735768179D-09  .100000000000D+01  .152900000000D+04  .000000000000D+00
     .240000000000D+01  .000000000000D+00 -.325962901115D-08  .630000000000D+02
     .547206000000D+06  .400000000000D+01
